*******************************************************************************
JPL/HORIZONS               313 Chaldaea (A891 QB)          2020-Jun-22 08:47:37
Rec #:     313 (+COV) Soln.date: 2020-Feb-22_15:23:58   # obs: 2983 (1893-2020)
 
IAU76/J2000 helio. ecliptic osc. elements (au, days, deg., period=Julian yrs):
 
  EPOCH=  2454211.5 ! 2007-Apr-21.00 (TDB)         Residual RMS= .3269
   EC= .1795209712904438   QR= 1.949660051322584   TP= 2453951.6664089002
   OM= 176.8167534182517   W=  315.884184660373    IN= 11.64452557353775
   A= 2.376246050296978    MA= 69.91369531436386   ADIST= 2.802832049271372
   PER= 3.66307            N= .269071035           ANGMOM= .026086374
   DAN= 2.03711            DDN= 2.63991            L= 133.2961936
   B= -8.076918900000001   MOID= .97907197         TP= 2006-Aug-04.1664089002
 
Asteroid physical parameters (km, seconds, rotational period in hours):
   GM= n.a.                RAD= 35.5915            ROTPER= 8.392
   H= 9.                   G= .150                 B-V= .715
                           ALBEDO= .044            STYP= C
 
ASTEROID comments: 
1: soln ref.= JPL#92, OCC=0
2: source=ORB
*******************************************************************************
 
 
*******************************************************************************
Ephemeris / WWW_USER Mon Jun 22 08:47:37 2020 Pasadena, USA      / Horizons
*******************************************************************************
Target body name: 313 Chaldaea (A891 QB)          {source: JPL#92}
Center body name: Solar System Barycenter (0)     {source: DE431}
Center-site name: BODY CENTER
*******************************************************************************
Start time      : A.D. 1969-Jun-28 00:00:00.0000 TDB
Stop  time      : A.D. 2071-May-04 00:00:00.0000 TDB
Step-size       : 7200 minutes
*******************************************************************************
Center geodetic : 0.00000000,0.00000000,0.0000000 {E-lon(deg),Lat(deg),Alt(km)}
Center cylindric: 0.00000000,0.00000000,0.0000000 {E-lon(deg),Dxy(km),Dz(km)}
Center radii    : (undefined)                                                  
Small perturbers: Yes                             {source: SB431-N16}
Output units    : AU-D
Output type     : GEOMETRIC cartesian states
Output format   : 2 (position and velocity)
Reference frame : Ecliptic of J2000.0
*******************************************************************************
Initial IAU76/J2000 heliocentric ecliptic osculating elements (au, days, deg.):
  EPOCH=  2454211.5 ! 2007-Apr-21.00 (TDB)         Residual RMS= .3269         
   EC= .1795209712904438   QR= 1.949660051322584   TP= 2453951.6664089002      
   OM= 176.8167534182517   W=  315.884184660373    IN= 11.64452557353775       
  Equivalent ICRF heliocentric equatorial cartesian coordinates (au, au/d):
   X=-1.679472037517868E+00  Y=-1.545466043143563E+00  Z=-3.039773115818735E-01
  VX= 6.263890473362524E-03 VY=-9.438517821466274E-03 VZ=-2.045643324383081E-03
Asteroid physical parameters (km, seconds, rotational period in hours):        
   GM= n.a.                RAD= 35.5915            ROTPER= 8.392               
   H= 9.                   G= .150                 B-V= .715                   
                           ALBEDO= .044            STYP= C                     
*******************************************************************************
            JDTDB,            Calendar Date (TDB),        delta-T,                      X,                      Y,                      Z,                     VX,                     VY,                     VZ,
******************************************************************************************************************************************************************************************************************
$$SOE
2442360.500000000, A.D. 1974-Nov-09 00:00:00.0000,      45.182617, -2.305506140419686E-02, -2.598251592899476E+00,  5.340440293318460E-01,  9.812899774924406E-03, -1.467316820771522E-03,  1.988572902325923E-04,
2442365.500000000, A.D. 1974-Nov-14 00:00:00.0000,      45.182704,  2.601033231410042E-02, -2.605074194928291E+00,  5.349327226354647E-01,  9.812612671648369E-03, -1.261901599396447E-03,  1.566631681448255E-04,
2442370.500000000, A.D. 1974-Nov-19 00:00:00.0000,      45.182800,  7.506466498614182E-02, -2.610872417603987E+00,  5.356110985691709E-01,  9.808485329703442E-03, -1.057571544970018E-03,  1.147315678473487E-04,
2442375.500000000, A.D. 1974-Nov-24 00:00:00.0000,      45.182904,  1.240888839423804E-01, -2.615651782283782E+00,  5.360804878374649E-01,  9.800576943425607E-03, -8.543645779778058E-04,  7.306967062268473E-05,
2442380.500000000, A.D. 1974-Nov-29 00:00:00.0000,      45.183015,  1.730642292553735E-01, -2.619417995682222E+00,  5.363422562142786E-01,  9.788945415036981E-03, -6.523169372243572E-04,  3.168432634399485E-05,
2442385.500000000, A.D. 1974-Dec-04 00:00:00.0000,      45.183134,  2.219722272769990E-01, -2.622176941704808E+00,  5.363978029358696E-01,  9.773647354166326E-03, -4.514632759740747E-04, -9.417926711238376E-06,
2442390.500000000, A.D. 1974-Dec-09 00:00:00.0000,      45.183260,  2.707946841793428E-01, -2.623934673752234E+00,  5.362485591903113E-01,  9.754738079793488E-03, -2.518367540601802E-04, -5.023084304008811E-05,
2442395.500000000, A.D. 1974-Dec-14 00:00:00.0000,      45.183394,  3.195136795113503E-01, -2.624697407475343E+00,  5.358959866986414E-01,  9.732271624610154E-03, -5.346912609858399E-05, -9.074845206015209E-05,
2442400.500000000, A.D. 1974-Dec-19 00:00:00.0000,      45.183532,  3.681115597832796E-01, -2.624471513961965E+00,  5.353415763830673E-01,  9.706300741769274E-03,  1.436091739139361E-04, -1.309650411186736E-04,
2442405.500000000, A.D. 1974-Dec-24 00:00:00.0000,      45.183673,  4.165709320906537E-01, -2.623263513338455E+00,  5.345868471182739E-01,  9.676876913906372E-03,  3.393689512606471E-04, -1.708751392153798E-04,
2442410.500000000, A.D. 1974-Dec-29 00:00:00.0000,      45.183815,  4.648746577885599E-01, -2.621080068770503E+00,  5.336333445626503E-01,  9.644050364214353E-03,  5.337821720792501E-04, -2.104735012910053E-04,
2442415.500000000, A.D. 1975-Jan-03 00:00:00.0000,      46.183958,  5.130058462258755E-01, -2.617927980849392E+00,  5.324826400669054E-01,  9.607870069288382E-03,  7.268218875748586E-04, -2.497550929667667E-04,
2442420.500000000, A.D. 1975-Jan-08 00:00:00.0000,      46.184103,  5.609478485475037E-01, -2.613814182350978E+00,  5.311363296580134E-01,  9.568383773434342E-03,  9.184621606862326E-04, -2.887150756654836E-04,
2442425.500000000, A.D. 1975-Jan-13 00:00:00.0000,      46.184248,  6.086842515711882E-01, -2.608745733355441E+00,  5.295960330966459E-01,  9.525638004145099E-03,  1.108677995112173E-03, -3.273487920975608E-04,
2442430.500000000, A.D. 1975-Jan-18 00:00:00.0000,      46.184391,  6.561988717441021E-01, -2.602729816716038E+00,  5.278633930062061E-01,  9.479678088499782E-03,  1.297445266681740E-03, -3.656517521433787E-04,
2442435.500000000, A.D. 1975-Jan-23 00:00:00.0000,      46.184530,  7.034757491833774E-01, -2.595773733865107E+00,  5.259400740713431E-01,  9.430548170318423E-03,  1.484740657084439E-03, -4.036196191865780E-04,
2442440.500000000, A.D. 1975-Jan-28 00:00:00.0000,      46.184664,  7.504991418040485E-01, -2.587884900945498E+00,  5.238277623035631E-01,  9.378291227954597E-03,  1.670541589978430E-03, -4.412481969517489E-04,
2442445.500000000, A.D. 1975-Feb-02 00:00:00.0000,      46.184792,  7.972535195373325E-01, -2.579070845255375E+00,  5.215281643712592E-01,  9.322949092624083E-03,  1.854826169553170E-03, -4.785334169144912E-04,
2442450.500000000, A.D. 1975-Feb-07 00:00:00.0000,      46.184916,  8.437235586418399E-01, -2.569339201993772E+00,  5.190430069910845E-01,  9.264562467263140E-03,  2.037573121680708E-03, -5.154713263583615E-04,
2442455.500000000, A.D. 1975-Feb-12 00:00:00.0000,      46.185034,  8.898941361107138E-01, -2.558697711294037E+00,  5.163740363774790E-01,  9.203170946069273E-03,  2.218761737555259E-03, -5.520580770381711E-04,
2442460.500000000, A.D. 1975-Feb-17 00:00:00.0000,      46.185144,  9.357503241783848E-01, -2.547154215533713E+00,  5.135230177477023E-01,  9.138813034800903E-03,  2.398371819410857E-03, -5.882899142838870E-04,
2442465.500000000, A.D. 1975-Feb-22 00:00:00.0000,      46.185244,  9.812773849304355E-01, -2.534716656911332E+00,  5.104917348805020E-01,  9.071526171686174E-03,  2.576383628008528E-03, -6.241631664371443E-04,
2442470.500000000, A.D. 1975-Feb-27 00:00:00.0000,      46.185333,  1.026460765019169E+00, -2.521393075281482E+00,  5.072819897267701E-01,  9.001346748774518E-03,  2.752777831841592E-03, -6.596742346222350E-04,
2442475.500000000, A.D. 1975-Mar-04 00:00:00.0000,      46.185412,  1.071286090486843E+00, -2.507191606239581E+00,  5.038956020704800E-01,  8.928310133643948E-03,  2.927535458042229E-03, -6.948195828644058E-04,
2442480.500000000, A.D. 1975-Mar-09 00:00:00.0000,      46.185482,  1.115739161698247E+00, -2.492120479447980E+00,  5.003344092381745E-01,  8.852450691424509E-03,  3.100637844926702E-03, -7.295957285472486E-04,
2442485.500000000, A.D. 1975-Mar-14 00:00:00.0000,      46.185542,  1.159805948384108E+00, -2.476188017195447E+00,  4.966002658553618E-01,  8.773801807096254E-03,  3.272066596086413E-03, -7.639992331900812E-04,
2442490.500000000, A.D. 1975-Mar-19 00:00:00.0000,      46.185589,  1.203472584796557E+00, -2.459402633182499E+00,  4.926950436482537E-01,  8.692395908011359E-03,  3.441803535936895E-03, -7.980266935305748E-04,
2442495.500000000, A.D. 1975-Mar-24 00:00:00.0000,      46.185624,  1.246725364977649E+00, -2.441772831525501E+00,  4.886206312893338E-01,  8.608264486577673E-03,  3.609830666663396E-03, -8.316747329131909E-04,
